CCSDS_OMM_VERS = 2.0
CREATION_DATE  = 
ORIGINATOR     = 

OBJECT_NAME    = CZ-2C R/B
OBJECT_ID      = 2022-132E
CENTER_NAME    = EARTH
REF_FRAME      = TEME
TIME_SYSTEM    = UTC
MEAN_ELEMENT_THEORY = SGP/SGP4

EPOCH          = 2025-12-19T22:37:03.108576
MEAN_MOTION    = 15.55236994
ECCENTRICITY   = .0022037
INCLINATION    = 97.2938
RA_OF_ASC_NODE = 350.2808
ARG_OF_PERICENTER = 32.7354
MEAN_ANOMALY   = 327.5261

EPHEMERIS_TYPE = 0
CLASSIFICATION_TYPE = U
NORAD_CAT_ID   = 54039
ELEMENT_SET_NO = 999
REV_AT_EPOCH   = 17795
BSTAR          = .33248E-3
MEAN_MOTION_DOT = .22653E-3
MEAN_MOTION_DDOT = 0

CCSDS_OMM_VERS = 2.0
CREATION_DATE  = 
ORIGINATOR     = 

OBJECT_NAME    = GSLV R/B
OBJECT_ID      = 2022-138AN
CENTER_NAME    = EARTH
REF_FRAME      = TEME
TIME_SYSTEM    = UTC
MEAN_ELEMENT_THEORY = SGP/SGP4

EPOCH          = 2025-12-20T00:17:41.816256
MEAN_MOTION    = 14.96163493
ECCENTRICITY   = .00241588
INCLINATION    = 87.3824
RA_OF_ASC_NODE = 193.0383
ARG_OF_PERICENTER = 81.7305
MEAN_ANOMALY   = 278.6664

EPHEMERIS_TYPE = 0
CLASSIFICATION_TYPE = U
NORAD_CAT_ID   = 54149
ELEMENT_SET_NO = 999
REV_AT_EPOCH   = 17201
BSTAR          = .14200493E-3
MEAN_MOTION_DOT = .1637E-4
MEAN_MOTION_DDOT = 0

CCSDS_OMM_VERS = 2.0
CREATION_DATE  = 
ORIGINATOR     = 

OBJECT_NAME    = XRISM
OBJECT_ID      = 2023-137A
CENTER_NAME    = EARTH
REF_FRAME      = TEME
TIME_SYSTEM    = UTC
MEAN_ELEMENT_THEORY = SGP/SGP4

EPOCH          = 2025-12-19T13:48:03.981312
MEAN_MOTION    = 15.10398433
ECCENTRICITY   = .00076945
INCLINATION    = 31.0027
RA_OF_ASC_NODE = 81.4100
ARG_OF_PERICENTER = 313.8682
MEAN_ANOMALY   = 46.1320

EPHEMERIS_TYPE = 0
CLASSIFICATION_TYPE = U
NORAD_CAT_ID   = 57800
ELEMENT_SET_NO = 999
REV_AT_EPOCH   = 12566
BSTAR          = .21210196E-3
MEAN_MOTION_DOT = .3667E-4
MEAN_MOTION_DDOT = 0

CCSDS_OMM_VERS = 2.0
CREATION_DATE  = 
ORIGINATOR     = 

OBJECT_NAME    = ACS3
OBJECT_ID      = 2024-077B
CENTER_NAME    = EARTH
REF_FRAME      = TEME
TIME_SYSTEM    = UTC
MEAN_ELEMENT_THEORY = SGP/SGP4

EPOCH          = 2025-12-19T21:39:41.184864
MEAN_MOTION    = 13.85811614
ECCENTRICITY   = .0076182
INCLINATION    = 97.2634
RA_OF_ASC_NODE = 307.9082
ARG_OF_PERICENTER = 320.7274
MEAN_ANOMALY   = 38.8376

EPHEMERIS_TYPE = 0
CLASSIFICATION_TYPE = U
NORAD_CAT_ID   = 59588
ELEMENT_SET_NO = 999
REV_AT_EPOCH   = 8313
BSTAR          = .16775E-1
MEAN_MOTION_DOT = .19692E-3
MEAN_MOTION_DDOT = 0

CCSDS_OMM_VERS = 2.0
CREATION_DATE  = 
ORIGINATOR     = 

OBJECT_NAME    = SZ-21 MODULE
OBJECT_ID      = 2025-246C
CENTER_NAME    = EARTH
REF_FRAME      = TEME
TIME_SYSTEM    = UTC
MEAN_ELEMENT_THEORY = SGP/SGP4

EPOCH          = 2025-12-20T00:23:58.587648
MEAN_MOTION    = 15.62845969
ECCENTRICITY   = .00056139
INCLINATION    = 41.4774
RA_OF_ASC_NODE = 331.6436
ARG_OF_PERICENTER = 298.6843
MEAN_ANOMALY   = 61.3432

EPHEMERIS_TYPE = 0
CLASSIFICATION_TYPE = U
NORAD_CAT_ID   = 66515
ELEMENT_SET_NO = 999
REV_AT_EPOCH   = 558
BSTAR          = .22500266E-3
MEAN_MOTION_DOT = .20613E-3
MEAN_MOTION_DDOT = 0

